#dP2021  4  2 18  0  0.00000000      96 __u+U ITR00 EXT  IAC
## 2151 496800.00000000   900.00000000 59306 0.7500000000000
+  116   C06C07C08C09C10C11C12C13C14C16C19C20C21C22C23C24C25
+        C26C27C28C29C30C32C33C34C35C36C37C38C39C40C41C42C43
+        C44C45C46E01E02E03E04E05E07E08E09E11E12E13E14E15E18
+        E19E21E24E25E26E27E30E31E33E36G01G02G03G04G05G06G07
+        G08G10G11G12G13G14G15G16G17G18G19G20G21G22G23G24G25
+        G26G27G28G29G30G31G32J01J02J03R01R02R03R04R05R07R08
+        R09R11R12R13R14R15R16R17R18R19R20R21R22R24  0  0  0
++        10 11  9 10 11 12  9  9  7 11  9  9  9 10  8  8  6
++         9  9  8  8  9  8  9  8  9 10  8 11 11 10  9  7  8
++        10 10  8  8  8  8  8 10  9  9  9  7  9  8  9  7  8
++         8  9  8  9  9  8  8  9  8 10  7  7  7  8  8  8  8
++         7  7  8 10  9  8  8  7  8  7  8  8  7  8  7  8  8
++         8  8  8  8  7  8  8 10 10  9  7  8  9  8  8  9  8
++        10  9  9  9  7  9  9  8 10 10 11  9  9  7  0  0  0
%c M  cc GPS ccc cccc cccc cccc cccc ccccc ccccc ccccc ccccc
%c cc cc ccc ccc cccc cccc cccc cccc ccccc ccccc ccccc ccccc
%f  0.0000000  0.000000000  0.00000000000  0.000000000000000
%f  0.0000000  0.000000000  0.00000000000  0.000000000000000
%i    0    0    0    0      0      0      0      0         0
%i    0    0    0    0      0      0      0      0         0
/* IAC                                ULTRA-RAPID PREDICTION
/* S/V CLOCKS ARE ALIGNED TO GNSS TIME                      
/* G:C1WC2W R:C1PC2P E:C1XC5X C:C2IC6I J:C1CC2S             
/* PCV:IGS14_2134 OL/AL:FES2004  NONE     YN ORB:CoN CLK:CoN
*  2021 04 03  9 45  0.00000000
PC06 -14036.783637  20477.104804 -33656.008442    240.224773
PC07 -23573.384164  33243.645454   9960.081985    -82.239960
PC08  -7920.469490  34622.909442  23119.128252   -894.704363
PC09   2641.548364  26527.059350 -32275.956671    622.699229
PC10 -10902.961762  34457.284629  21563.595747    -62.051291
PC11  20588.157699  17409.860475   7323.548130   -831.247910
PC12   4562.787837  18174.237678  20716.109719    914.419356
PC13    914.222345  40971.403512  10542.549349    206.419526
PC14  12455.695558  10741.217970 -22519.856781    372.208748
PC16  -9209.905599  22241.749208 -34495.608936   -764.897291
PC19 -20158.026019  -3077.257227  19074.437726    785.045988
PC20  -4203.295471 -15809.189130  22633.708601   -944.603308
PC21 -15078.890243  19658.722628 -12796.322099   -920.419756
PC22 -24909.756102  11788.112179   4302.280796   -945.635545
PC23  15271.877002  -8966.649683  21565.356641   -883.242782
PC24   5159.179184  26635.691809   6579.378678   -801.874318
PC25  15073.405649  11586.939996  20427.641822   -938.386961
PC26  -5899.141295  25491.521032  -9762.214389    926.321698
PC27   5905.158611 -14824.854221 -22912.805843    509.244679
PC28  21768.939938  -1457.000652 -17398.256862    -90.752196
PC29 -25259.671655 -11748.546374   1701.949503    373.725163
PC30 -13601.743855 -18976.780856 -15309.778153    457.377352
PC32  14917.937020 -19808.020094  12831.754133   -929.211109
PC33  20165.636597   2998.398021 -19051.326789   -942.834940
PC34  14155.412652  18958.114987  14765.428597   -704.414642
PC35 -21942.047927   1977.778651  17146.231197   -344.629505
PC36 -14695.055327 -12286.553367 -20273.055926   -734.819646
PC37   7019.772935 -24867.550398  10527.228490   -888.198691
PC38  -6516.749702  36963.311552  19354.595260    139.883244
PC39  -5826.469421  23423.582355 -34560.810884     29.968556
PC40 -17688.479339  30999.651469  22353.790572    147.406059
PC41  24906.864864 -11732.353425  -4485.950700   -938.568308
PC42   3513.014633  16165.508680 -22423.220223   -930.172171
PC43  25075.975000  12147.883784  -1244.652913   -668.568330
PC44  -5733.126080  14986.453592  22821.398309    118.606451
PC45 -15115.363633   9120.935978 -21617.322006    403.840095
PC46  -5772.514501 -26237.774167  -7478.364957    333.449001
PE01 -15320.512895  -6268.064465 -24542.848597  -1079.082497
PE02  15361.200700   6167.868805  24532.774122    209.519357
PE03  26848.668383   5807.808892 -11040.614696   -415.989294
PE04 -27809.945578   7177.671990  -7152.091457   -742.326104
PE05  10095.646866  15592.899392 -23040.292007   -291.850289
PE07  12365.630519 -16188.077367  21488.012666   -520.904885
PE08  27651.664788  -7480.863893   7485.461685   6023.369091
PE09 -12103.185907  16151.135195 -21640.414425   5713.393581
PE11  -2308.102621  20731.179231  20987.355745   6135.575154
PE12 -17042.521970   3009.325406  24020.684511   5278.347733
PE13   2523.584061 -20453.759466 -21245.349804    414.484137
PE14 -14422.438843 -18463.659666 -18768.005895  -1384.010518
PE15  16932.646834  -3082.760823 -24071.798102    821.381314
PE18  25364.651536   9580.917746   5140.609765  -1513.856184
PE19 -25619.893865  -7174.895104  12985.837345    242.898306
PE21  -2682.966256 -23024.139940 -18409.726840   -657.219262
PE24 -12580.794368  26801.897996    638.397985   -827.103153
PE25   2523.900759  23149.983849  18278.077904   -530.049039
PE26 -13691.398399 -25734.092871  -5155.252747   1967.852681
PE27  11979.693893 -27025.536462  -1375.766224     -3.219140
PE30  19668.951847 -14197.493056  16937.994862   3055.209929
PE31 -19501.787844  15125.121486 -16345.559819   -479.791408
PE33 -21357.966363 -16077.875457  12731.961190   -467.164070
PE36  13333.627923  25747.233803   5924.664389   -188.631177
PG01 -16227.170092  -3549.974356  20560.556600    725.791242
PG02  13782.095028  22369.203742  -3058.483403   -592.222588
PG03 -19637.171949   7623.896578  16030.328554   -126.252379
PG04 -26180.576731   -997.705896  -4540.527898   -189.836716
PG05  12316.388917   9258.780936 -21783.741015    -38.019454
PG06   4967.595099  24949.241953   7594.277390      4.626053
PG07 -11034.740712  11817.223362 -20639.419334    110.467623
PG08 -25818.654332  -5610.222574  -4022.205899    -16.128738
PG10  10025.409794 -22968.256278   8496.159483    -94.304959
PG11 -21895.111616  -4364.597834  13672.111350     19.133052
PG12  19100.186281  -3391.014585  17821.065914    -22.776538
PG13  20231.299643  13289.247612 -11214.386319    115.411969
PG14 -11909.701464  22517.217349   7480.007436     98.279791
PG15  26281.572337   3342.064024  -4065.124411   -158.745520
PG16  -8713.897067 -12548.590976 -21927.694404   -303.883763
PG17  -5380.927320  14105.188450  22279.346384    420.342884
PG18   8457.954918 -15612.452268 -19739.857404    351.489629
PG19   4236.239662  15401.137172  20955.083761    -17.881744
PG20  17999.883375 -15953.573250 -10915.886919    523.557317
PG21 -18613.725005 -10409.871921  16838.692703    108.146776
PG22 -16885.608723  -1635.695902  20595.293591   -646.420150
PG23  16795.065364 -20398.137640  -2473.841781    115.327506
PG24  18399.150694   8379.017161  17175.789052      0.245500
PG25  19274.675540 -15961.968584   8206.943031    111.362779
PG26  -1530.978909 -19952.148259 -17389.812312     67.020187
PG27 -18815.520831 -12317.763697 -14589.458279   -105.911591
PG28 -10623.587935  22264.463888  10646.534122    592.485092
PG29  21310.928798  -5769.317780 -14841.555382   -323.384333
PG30  -2102.273136  22470.738877 -13767.953326   -407.609245
PG31  -6384.513242 -25106.687306   4520.857221   -109.388392
PG32   2582.822667 -15130.195970  21777.345416     21.964969
PJ01 -35788.469662  19438.550057  -6293.485778   -361.567907
PJ02 -23946.656193  31882.485999  -9267.093490      4.655620
PJ03 -27793.227618  21689.406209  28186.330311     -2.725277
PR01 -18238.694040  -1865.385821  17733.927299     77.326598
PR02 -23684.027534   9467.267251  -1261.775125    473.343263
PR03 -13206.483324  13663.427051 -16996.999321     33.539857
PR04   4519.215997   9856.522385 -23056.933298     80.722617
PR05  19691.452781    717.430241 -16170.380045     69.307283
PR07  12502.121441 -13661.758249  17561.475566    -42.558871
PR08  -4662.056365  -9967.211326  23071.691034    -58.321504
PR09  11428.983956 -12200.992979  19305.296158    -13.929927
PR11  -2373.010989 -22487.402002 -11807.144133      1.575880
PR12  -9667.958804  -7290.124862 -22426.667228    217.803826
PR13 -11240.071743  11609.098186 -19758.557565    -52.908670
PR14  -6223.274315  24224.034032  -4978.658908     62.729305
PR15   2328.109178  22298.003563  12185.769524    104.571029
PR16  10213.862237   6209.707439  22521.981344    -13.342127
PR17  -1144.975183  12216.871806  22376.022969    413.224062
PR18  13155.659111  18081.480939  12232.214059     71.958368
PR19  20046.139614  15326.232622  -3720.601284   -138.293170
PR20  15528.159534   1734.546647 -20138.028509    -46.568040
PR21     90.813093 -12811.748066 -22053.075558   -199.051499
PR22 -13926.724621 -18255.339801 -11235.830654   -105.927802
PR24 -15419.863816   -630.287360  20324.602287     37.423979
EOF
